[{"OBJECT_NAME":"STARLINK-30279","OBJECT_ID":"2023-144X","EPOCH":"2026-03-09T00:00:04.000320","MEAN_MOTION":15.26701549,"ECCENTRICITY":0.00014879,"INCLINATION":43,"RA_OF_ASC_NODE":288.715,"ARG_OF_PERICENTER":259.326,"MEAN_ANOMALY":199.1729,"EPHEMERIS_TYPE":0,"CLASSIFICATION_TYPE":"U","NORAD_CAT_ID":57885,"ELEMENT_SET_NO":999,"REV_AT_EPOCH":578,"BSTAR":0.0021326377,"MEAN_MOTION_DOT":0.00057324,"MEAN_MOTION_DDOT":0},{"OBJECT_NAME":"OBJECT E","OBJECT_ID":"2024-174E","EPOCH":"2026-03-09T23:40:24.424320","MEAN_MOTION":15.26241811,"ECCENTRICITY":0.00122518,"INCLINATION":97.4515,"RA_OF_ASC_NODE":80.1669,"ARG_OF_PERICENTER":217.7524,"MEAN_ANOMALY":142.2856,"EPHEMERIS_TYPE":0,"CLASSIFICATION_TYPE":"U","NORAD_CAT_ID":61242,"ELEMENT_SET_NO":999,"REV_AT_EPOCH":8070,"BSTAR":0.00031155901,"MEAN_MOTION_DOT":8.013e-5,"MEAN_MOTION_DDOT":0}]
